SatCatId,ObjectName,LaunchYear,OrbitalPeriod,LaunchMass,StatusCode,Inclination,Status,UcsData,OrbitClassEstimated,LaunchSiteCountry,Owner,UseType,Purpose,LaunchVehicleClass,TLE1,TLE2,MeanMotion,Eccentricity,OrbitClass
46370,STARLINK-1670,2020,92.49,260.0,P,53.05,Active,1,LEO,USA,USA,Commercial,Communications,Falcon,1 46370U 20062AX  24321.91667824  .00205660  00000+0  27330-2 0  9990,2 46370  53.0529 336.9521 0001864  94.6128 284.5119 15.57002364232824,15.57002364,0.0001864,LEO
46372,STARLINK-1689,2020,94.82,260.0,P,53.05,Active,1,LEO,USA,USA,Commercial,Communications,Falcon,1 46372U 20062AZ  24321.43007506  .00032933  00000+0  15759-2 0  9997,2 46372  53.0535 358.2858 0001930 287.7045  72.3738 15.18703184232487,15.18703184,0.000193,LEO
46374,STARLINK-1711,2020,92.67,260.0,P,53.05,Active,1,LEO,USA,USA,Commercial,Communications,Falcon,1 46374U 20062BB  24321.91667824  .00126925  00000+0  19043-2 0  9992,2 46374  53.0522 282.7410 0002617 109.3228 177.1487 15.54013347233565,15.54013347,0.0002617,LEO
46375,STARLINK-1724,2020,95.59,260.0,+,53.06,Active,1,LEO,USA,USA,Commercial,Communications,Falcon,1 46375U 20062BC  24321.30275442  .00000585  00000+0  58175-4 0  9991,2 46375  53.0558 319.1807 0001692 108.6307 251.4866 15.06402445232836,15.06402445,0.0001692,LEO
46376,STARLINK-1742,2020,95.59,260.0,+,53.05,Active,1,LEO,USA,USA,Commercial,Communications,Falcon,1 46376U 20062BD  24321.38384523  .00001470  00000+0  11761-3 0  9994,2 46376  53.0550 318.8135 0001368  91.0871 269.0275 15.06384683233024,15.06384683,0.0001368,LEO
46380,STARLINK-1758,2020,95.01,260.0,+,53.05,Active,1,LEO,USA,USA,Commercial,Communications,Falcon,1 46380U 20062BH  24321.91667824  .00673966  00000+0  32421-1 0  9995,2 46380  53.0521 341.0794 0001320  95.2396 276.1777 15.15989773232769,15.15989773,0.000132,LEO
46382,STARLINK-1769,2020,95.59,260.0,+,53.06,Active,1,LEO,USA,USA,Commercial,Communications,Falcon,1 46382U 20062BK  24321.39859766  .00000900  00000+0  79315-4 0  9995,2 46382  53.0551 318.7427 0001541 100.0664 260.0498 15.06394470233000,15.0639447,0.0001541,LEO
46383,STARLINK-1770,2020,95.59,260.0,+,53.05,Active,1,LEO,USA,USA,Commercial,Communications,Falcon,1 46383U 20062BL  24321.38522885  .00016773  00000+0  11420-2 0  9990,2 46383  53.0544   3.8097 0001376  80.7531 279.3613 15.06408158232393,15.06408158,0.0001376,LEO
46384,STARLINK-1771,2020,95.59,260.0,+,53.05,Active,1,LEO,USA,USA,Commercial,Communications,Falcon,1 46384U 20062BM  24321.38891581  .00020693  00000+0  14034-2 0  9993,2 46384  53.0542   3.7968 0001455  92.5740 267.5416 15.06415488232393,15.06415488,0.0001455,LEO
46396,GAOFEN-11 02,2020,94.52,1000.0,+,97.46,Active,1,LEO,PRC,China,Government,Earth Observation,Long March,1 46396U 20064A   24321.80397402  .00014042  00000+0  59037-3 0  9992,2 46396  97.4579  78.4937 0013715 229.2078 130.7970 15.23438133233622,15.23438133,0.0013715,LEO
46454,JILIN-1 GAOFEN 3B,2020,93.76,40.0,+,97.32,Active,1,LEO,Sea Launch Platform,China,Commercial,Earth Observation,Long March,1 46454U 20065A   24321.76528279  .00027257  00000+0  78210-3 0  9997,2 46454  97.3181   4.6992 0009759  40.4951 319.7017 15.35791665230761,15.35791665,0.0009759,LEO
46455,JILIN-1 GAOFEN 3C,2020,93.75,40.0,+,97.31,Active,1,LEO,Sea Launch Platform,China,Commercial,Earth Observation,Long March,1 46455U 20065B   24321.82078330  .00028040  00000+0  80014-3 0  9999,2 46455  97.3136   4.0108 0009136  53.3315 306.8767 15.35964903230789,15.35964903,0.0009136,LEO
46456,JILIN-1 GAOFEN 3D,2020,93.68,40.0,+,97.32,Active,1,LEO,Sea Launch Platform,China,Commercial,Earth Observation,Long March,1 46456U 20065C   24321.77070133  .00030506  00000+0  83922-3 0  9998,2 46456  97.3218   6.2292 0008639  44.2150 315.9783 15.37095366230804,15.37095366,0.0008639,LEO
46457,JILIN-1 GAOFEN 3E,2020,93.79,40.0,+,97.32,Active,1,LEO,Sea Launch Platform,China,Commercial,Earth Observation,Long March,1 46457U 20065D   24321.81964525  .00027942  00000+0  81302-3 0  9991,2 46457  97.3194   4.7870 0008985  58.9830 301.2295 15.35355428230761,15.35355428,0.0008985,LEO
46458,JILIN-1 GAOFEN 3F,2020,93.79,40.0,+,97.31,Active,1,LEO,Sea Launch Platform,China,Commercial,Earth Observation,Long March,1 46458U 20065E   24321.79150343  .00027851  00000+0  80986-3 0  9990,2 46458  97.3126   3.4495 0009245  49.5136 310.6912 15.35373297230765,15.35373297,0.0009245,LEO
46459,JILIN-1 GAOFEN 3G,2020,93.77,40.0,+,97.32,Active,1,LEO,Sea Launch Platform,China,Commercial,Earth Observation,Long March,1 46459U 20065F   24321.81774811  .00027705  00000+0  79924-3 0  9994,2 46459  97.3241   6.0221 0009835  53.1543 307.0601 15.35618985230770,15.35618985,0.0009835,LEO
46460,JILIN-1 GAOFEN 3H,2020,93.82,40.0,+,97.31,Active,1,LEO,Sea Launch Platform,China,Commercial,Earth Observation,Long March,1 46460U 20065G   24321.78144672  .00026679  00000+0  78723-3 0  9993,2 46460  97.3141   3.5744 0009275  52.0193 308.1887 15.34920182230750,15.34920182,0.0009275,LEO
46461,JILIN-1 GAOFEN 3I,2020,93.77,40.0,+,97.32,Active,1,LEO,Sea Launch Platform,China,Commercial,Earth Observation,Long March,1 46461U 20065H   24321.81576694  .00028092  00000+0  81047-3 0  9995,2 46461  97.3223   5.6785 0009512  43.8670 316.3328 15.35617115230775,15.35617115,0.0009512,LEO
46462,JILIN-1 GAOFEN 3J,2020,93.76,40.0,+,97.32,Active,1,LEO,Sea Launch Platform,China,Commercial,Earth Observation,Long March,1 46462U 20065J   24321.78082842  .00028605  00000+0  81973-3 0  9997,2 46462  97.3180   4.7732 0008919  49.5740 310.6280 15.35829564230778,15.35829564,0.0008919,LEO
46469,HAIYANG-2C,2020,104.09,1500.0,+,66.0,Active,1,LEO,PRC,China,Government,Earth Observation,Long March,1 46469U 20066A   24321.81974092  .00000047  00000+0  11631-3 0  9990,2 46469  65.9961 212.8013 0004512 255.6217 104.4351 13.83367493209921,13.83367493,0.0004512,LEO
46478,HJ-2A,2020,97.53,-1.0,+,97.93,Active,1,LEO,PRC,China,Government,Earth Observation,Long March,1 46478U 20067A   24321.78721471  .00001836  00000+0  27079-3 0  9998,2 46478  97.9321  41.1635 0003144 348.7612  11.3528 14.76506347223050,14.76506347,0.0003144,LEO
46479,HJ-2B,2020,97.53,-1.0,+,97.94,Active,1,LEO,PRC,China,Government,Earth Observation,Long March,1 46479U 20067B   24321.75521755  .00001897  00000+0  27955-3 0  9999,2 46479  97.9366  41.7747 0003383  87.6483 272.5114 14.76507147223051,14.76507147,0.0003383,LEO
46486,GONETS-M 17,2020,115.86,280.0,+,82.5,Active,1,LEO,Russia,Russia/USSR,Commercial,Communications,Soyuz,1 46486U 20068A   24321.79942074  .00000044  00000+0  24770-3 0  9998,2 46486  82.4987 346.6830 0022385 211.7706 148.2024 12.42881588187624,12.42881588,0.0022385,LEO
46487,GONETS-M 18,2020,115.86,280.0,+,82.49,Active,1,LEO,Russia,Russia/USSR,Commercial,Communications,Soyuz,1 46487U 20068B   24321.76508844  .00000030  00000+0  14608-3 0  9993,2 46487  82.4941 346.0436 0019630 208.0620 151.9403 12.42871434187614,12.42871434,0.001963,LEO
46488,GONETS-M 19,2020,115.86,280.0,+,82.5,Active,1,LEO,Russia,Russia/USSR,Commercial,Communications,Soyuz,1 46488U 20068C   24321.41723281  .00000056  00000+0  33408-3 0  9997,2 46488  82.4966 346.5893 0013144 222.9889 137.0165 12.42896246187584,12.42896246,0.0013144,LEO
46489,MEZNSAT,2020,93.34,5.0,+,97.82,Active,1,LEO,Russia,UAE,Civil,Earth Observation,Soyuz,1 46489U 20068D   24321.47860655  .00063851  00000+0  14527-2 0  9993,2 46489  97.8234 295.9894 0012813 107.3017 252.9632 15.42670994228105,15.42670994,0.0012813,LEO
46490,YARILO 1,2020,92.87,-1.0,+,97.82,Active,1,LEO,Russia,Russia/USSR,Civil,Space Science,Soyuz,1 46490U 20068E   24321.75214774  .00072984  00000+0  12598-2 0  9994,2 46490  97.8233 298.5690 0012435 102.4381 257.8262 15.50674687228283,15.50674687,0.0012435,LEO
46491,YARILO 2,2020,92.67,-1.0,+,97.81,Active,1,LEO,Russia,Russia/USSR,Civil,Space Science,Soyuz,1 46491U 20068F   24321.80497157  .00114790  00000+0  17519-2 0  9999,2 46491  97.8140 298.4656 0013346 103.8248 256.4491 15.53942783228288,15.53942783,0.0013346,LEO
46492,LACUNASAT-3,2020,92.51,5.0,+,97.82,Active,1,LEO,Russia,Lithuania,Commercial,Communications,Soyuz,1 46492U 20068G   24321.46230687  .00120138  00000+0  16590-2 0  9996,2 46492  97.8159 299.5886 0012558 100.4614 259.8055 15.56668286228313,15.56668286,0.0012558,LEO
46493,DEKART,2020,94.72,5.0,+,97.84,Active,1,LEO,Russia,Russia/USSR,Civil,Space Science,Soyuz,1 46493U 20068H   24321.46640204  .00015648  00000+0  72134-3 0  9993,2 46493  97.8356 287.0214 0014593 142.1116 218.1148 15.20267974227489,15.20267974,0.0014593,LEO
46494,NORBI,2020,94.54,9.0,+,97.84,Active,1,LEO,Russia,Russia/USSR,Civil,Space Science,Soyuz,1 46494U 20068J   24321.46220704  .00018771  00000+0  79600-3 0  9998,2 46494  97.8355 288.4245 0013792 137.1082 223.1232 15.23090433227571,15.23090433,0.0013792,LEO
46495,SALSAT,2020,94.9,12.0,+,97.84,Active,1,LEO,Russia,Germany,Civil,Space Science,Soyuz,1 46495U 20068K   24321.19034620  .00015831  00000+0  79246-3 0  9999,2 46495  97.8366 284.8816 0014019 143.4427 216.7765 15.17408853227328,15.17408853,0.0014019,LEO
46496,ICEYE-X7,2020,95.08,80.0,+,97.69,Active,1,LEO,Russia,Finland,Commercial,Earth Observation,Soyuz,1 46496U 20068L   24321.79617269  .00013457  00000+0  73187-3 0  9992,2 46496  97.6863 261.0517 0011052 167.5161 192.6346 15.14544878226882,15.14544878,0.0011052,LEO
46497,ICEYE-X6,2020,95.96,80.0,+,98.0,Active,1,LEO,Russia,Finland,Commercial,Earth Observation,Soyuz,1 46497U 20068M   24321.77296572  .00007280  00000+0  57981-3 0  9992,2 46497  97.9959 281.6954 0002765 221.7517 138.3495 15.00679953226558,15.00679953,0.0002765,LEO
46498,KEPLER-5 (AMIDALA),2020,89.35,9.0,+,97.78,Active,1,LEO,Russia,Canada,Commercial,Communications,Soyuz,1 46498U 20068N   24321.50663543  .02377092  67942-2  25266-2 0  9994,2 46498  97.7843 301.6689 0009731 138.5564 221.6459 16.11860098228502,16.11860098,0.0009731,LEO
